{
 "type": "FeatureCollection",
 "crs": {
  "type": "name",
  "properties": {
   "name": "urn:ogc:def:crs:EPSG::2249"
  }
 },
 "features": [
  {
   "type": "Feature",
   "properties": {
    "name": "Orange Line",
    "type": "rapid_transit",
    "color": "#ED8B00"
   },
   "geometry": {
    "type": "LineString",
    "coordinates": [
     [
      761349.1727748695,
      2934945.395033858
     ],
     [
      762974.934554975,
      2939021.115124153
     ],
     [
      763774.489528797,
      2941494.415349887
     ],
     [
      764707.3036649232,
      2943131.6704288935
     ],
     [
      765933.2879581159,
      2946092.663656884
     ],
     [
      767985.4790575921,
      2949018.821670429
     ],
     [
      771316.9581151842,
      2952049.4853273127
     ],
     [
      773768.9267015695,
      2952432.6726862295
     ],
     [
      774808.3481675384,
      2953582.2347629773
     ],
     [
      775501.2958115176,
      2954731.796839728
     ],
     [
      776167.5916230354,
      2955916.194130924
     ],
     [
      776087.6361256542,
      2957414.1083521433
     ],
     [
      774861.6518324616,
      2958459.164785552
     ],
     [
      771796.691099478,
      2960758.2889390504
     ],
     [
      770997.1361256562,
      2964032.799097064
     ],
     [
      770810.5732984287,
      2967655.6613995484
     ],
     [
      770810.5732984287,
      2970372.808126409
     ],
     [
      772489.6387434574,
      2975005.8916478544
     ],
     [
      773875.5340314121,
      2983017.9909706544
     ]
    ]
   }
  },
  {
   "type": "Feature",
   "properties": {
    "name": "Red Line",
    "type": "rapid_transit",
    "color": "#DA291C"
   },
   "geometry": {
    "type": "LineString",
    "coordinates": [
     [
      753566.8376963354,
      2968770.3882618505
     ],
     [
      758843.900523561,
      2969118.7404063195
     ],
     [
      759803.3664921488,
      2966331.923250562
     ],
     [
      759803.3664921488,
      2961106.641083522
     ],
     [
      763961.0523560208,
      2958180.483069977
     ],
     [
      768545.1675392671,
      2957239.9322799076
     ],
     [
      772702.8534031428,
      2956856.744920993
     ],
     [
      774835.0,
      2954975.6433408572
     ],
     [
      775501.2958115176,
      2954731.796839728
     ],
     [
      776700.6282722525,
      2952955.2009029337
     ],
     [
      776434.1099476439,
      2950272.8893905184
     ],
     [
      776274.198952878,
      2946092.663656884
     ],
     [
      777553.4869109938,
      2942678.8126410833
     ]
    ]
   }
  },
  {
   "type": "Feature",
   "properties": {
    "name": "Red Line Braintree",
    "type": "rapid_transit",
    "color": "#DA291C"
   },
   "geometry": {
    "type": "LineString",
    "coordinates": [
     [
      777553.4869109938,
      2942678.8126410833
     ],
     [
      791065.9659685859,
      2918503.1738148974
     ],
     [
      789600.1151832463,
      2912128.3295711037
     ],
     [
      791305.8324607329,
      2903384.6907449206
     ]
    ]
   }
  },
  {
   "type": "Feature",
   "properties": {
    "name": "Red Line Ashmont",
    "type": "rapid_transit",
    "color": "#DA291C"
   },
   "geometry": {
    "type": "LineString",
    "coordinates": [
     [
      777553.4869109938,
      2942678.8126410833
     ],
     [
      777366.9240837701,
      2939264.96162528
     ],
     [
      776167.5916230354,
      2935433.0880361167
     ],
     [
      774728.3926701574,
      2932576.6004514657
     ],
     [
      774701.7408376957,
      2929998.794582392
     ]
    ]
   }
  },
  {
   "type": "Feature",
   "properties": {
    "name": "Green Line",
    "type": "rapid_transit",
    "color": "#00843D"
   },
   "geometry": {
    "type": "LineString",
    "coordinates": [
     [
      724143.2146596891,
      2948356.952595937
     ],
     [
      728753.9816753971,
      2951805.6388261835
     ],
     [
      730219.8324607367,
      2945848.8171557547
     ],
     [
      732298.6753926745,
      2943131.6704288935
     ],
     [
      735310.3324607348,
      2944455.4085778776
     ],
     [
      740160.9659685898,
      2945326.2889390504
     ],
     [
      747756.7382198963,
      2941668.59142212
     ],
     [
      751941.0759162337,
      2943863.2099322793
     ],
     [
      753939.9633507866,
      2943096.835214446
     ],
     [
      757697.8717277495,
      2944838.5959367943
     ],
     [
      759270.3298429317,
      2946580.3566591404
     ],
     [
      762974.934554975,
      2949854.8668171535
     ],
     [
      764520.7408376957,
      2951143.7697516917
     ],
     [
      765986.5916230391,
      2952572.013544017
     ],
     [
      768198.6937172775,
      2952432.6726862295
     ],
     [
      770970.4842931945,
      2952850.695259592
     ],
     [
      772702.8534031428,
      2953164.2121896152
     ],
     [
      774301.9633507866,
      2953617.0699774255
     ],
     [
      774835.0,
      2954975.6433408572
     ],
     [
      775501.2958115176,
      2954731.796839728
     ],
     [
      776087.6361256542,
      2957414.1083521433
     ],
     [
      774861.6518324616,
      2958459.164785552
     ]
    ]
   }
  },
  {
   "type": "Feature",
   "properties": {
    "name": "Blue Line",
    "type": "rapid_transit",
    "color": "#003DA5"
   },
   "geometry": {
    "type": "LineString",
    "coordinates": [
     [
      774835.0,
      2954975.6433408572
     ],
     [
      776167.5916230354,
      2955916.194130924
     ],
     [
      777953.2643979067,
      2956369.051918735
     ],
     [
      780911.6178010476,
      2956299.381489841
     ],
     [
      784616.2225130871,
      2957727.6252821665
     ],
     [
      786295.2879581159,
      2960200.9255079003
     ],
     [
      791545.6989528799,
      2966088.076749435
     ],
     [
      794770.5706806255,
      2969258.081264107
     ],
     [
      797035.9764397871,
      2972184.2392776515
     ],
     [
      793464.6308900518,
      2975667.760722346
     ],
     [
      793624.5418848139,
      2980161.5033860034
     ]
    ]
   }
  },
  {
   "type": "Feature",
   "properties": {
    "name": "Silver Line SL4/SL5",
    "type": "silver_line",
    "color": "#7C878E"
   },
   "geometry": {
    "type": "LineString",
    "coordinates": [
     [
      769211.4633507847,
      2945639.8058690736
     ],
     [
      770437.4476439812,
      2947242.225733632
     ],
     [
      771316.9581151842,
      2952049.4853273127
     ],
     [
      772836.112565447,
      2952537.178329569
     ],
     [
      774808.3481675384,
      2953582.2347629773
     ],
     [
      775501.2958115176,
      2954731.796839728
     ],
     [
      776700.6282722525,
      2952955.2009029337
     ]
    ]
   }
  },
  {
   "type": "Feature",
   "properties": {
    "name": "Silver Line SL1/SL2",
    "type": "silver_line",
    "color": "#7C878E"
   },
   "geometry": {
    "type": "LineString",
    "coordinates": [
     [
      776700.6282722525,
      2952955.2009029337
     ],
     [
      779232.5523560188,
      2952537.178329569
     ],
     [
      780911.6178010476,
      2952119.1557562063
     ],
     [
      784616.2225130871,
      2957727.6252821665
     ]
    ]
   }
  },
  {
   "type": "Feature",
   "properties": {
    "name": "Route 1 (Harvard\u2013Dudley via Mass Ave)",
    "type": "key_bus",
    "color": "#A8B4BC"
   },
   "geometry": {
    "type": "LineString",
    "coordinates": [
     [
      759803.3664921488,
      2961106.641083522
     ],
     [
      763961.0523560208,
      2958180.483069977
     ],
     [
      765986.5916230391,
      2955254.3250564323
     ],
     [
      767985.4790575921,
      2953268.717832957
     ],
     [
      769238.1151832463,
      2949854.8668171535
     ],
     [
      769211.4633507847,
      2945639.8058690736
     ]
    ]
   }
  },
  {
   "type": "Feature",
   "properties": {
    "name": "Route 39 (Forest Hills\u2013Back Bay)",
    "type": "key_bus",
    "color": "#A8B4BC"
   },
   "geometry": {
    "type": "LineString",
    "coordinates": [
     [
      761349.1727748695,
      2934945.395033858
     ],
     [
      764520.7408376957,
      2938951.4446952594
     ],
     [
      764520.7408376957,
      2951143.7697516917
     ],
     [
      768198.6937172775,
      2952432.6726862295
     ],
     [
      770970.4842931945,
      2952850.695259592
     ]
    ]
   }
  },
  {
   "type": "Feature",
   "properties": {
    "name": "Route 66 (Harvard\u2013Dudley via Brookline)",
    "type": "key_bus",
    "color": "#A8B4BC"
   },
   "geometry": {
    "type": "LineString",
    "coordinates": [
     [
      759803.3664921488,
      2961106.641083522
     ],
     [
      759270.3298429317,
      2946580.3566591404
     ],
     [
      763774.489528797,
      2941494.415349887
     ],
     [
      765933.2879581159,
      2946092.663656884
     ],
     [
      769211.4633507847,
      2945639.8058690736
     ]
    ]
   }
  },
  {
   "type": "Feature",
   "properties": {
    "name": "Worcester Line",
    "type": "commuter_rail",
    "color": "#80276C"
   },
   "geometry": {
    "type": "LineString",
    "coordinates": [
     [
      776700.6282722525,
      2952955.2009029337
     ],
     [
      773688.9712041884,
      2952049.4853273127
     ],
     [
      764840.5628272275,
      2952885.53047404
     ],
     [
      754153.178010472,
      2953791.246049661
     ],
     [
      739201.5000000019,
      2951422.4514672663
     ],
     [
      730619.6099476495,
      2952467.5079006753
     ]
    ]
   }
  },
  {
   "type": "Feature",
   "properties": {
    "name": "Greenbush Line",
    "type": "commuter_rail",
    "color": "#80276C"
   },
   "geometry": {
    "type": "LineString",
    "coordinates": [
     [
      776700.6282722525,
      2952955.2009029337
     ],
     [
      777553.4869109938,
      2942678.8126410833
     ],
     [
      786241.9842931926,
      2926689.449209931
     ],
     [
      804818.3115183213,
      2918050.3160270867
     ],
     [
      813186.986910992,
      2917701.963882618
     ]
    ]
   }
  }
 ]
}